[{"OBJECT_NAME":"COSMOS 2523","OBJECT_ID":"2017-037E","EPOCH":"2026-03-09T23:01:03.762912","MEAN_MOTION":14.95066265,"ECCENTRICITY":0.0066686,"INCLINATION":97.5062,"RA_OF_ASC_NODE":86.2978,"ARG_OF_PERICENTER":201.8356,"MEAN_ANOMALY":158.0021,"EPHEMERIS_TYPE":0,"CLASSIFICATION_TYPE":"U","NORAD_CAT_ID":42986,"ELEMENT_SET_NO":999,"REV_AT_EPOCH":45413,"BSTAR":0.00015362789,"MEAN_MOTION_DOT":1.699e-5,"MEAN_MOTION_DDOT":0},{"OBJECT_NAME":"THOR ABLESTAR DEB","OBJECT_ID":"1961-015DR","EPOCH":"2026-03-09T22:24:08.565408","MEAN_MOTION":14.84611176,"ECCENTRICITY":0.00216103,"INCLINATION":66.7426,"RA_OF_ASC_NODE":9.1053,"ARG_OF_PERICENTER":15.8914,"MEAN_ANOMALY":344.2885,"EPHEMERIS_TYPE":0,"CLASSIFICATION_TYPE":"U","NORAD_CAT_ID":351,"ELEMENT_SET_NO":999,"REV_AT_EPOCH":36299,"BSTAR":0.0018766507,"MEAN_MOTION_DOT":0.0001588,"MEAN_MOTION_DDOT":0}]
